{
  "type": "FeatureCollection",
  "features": [
    {
      "type": "Feature",
      "properties": {
        "norad_id": 43260,
        "name": "GAOFEN-1 03",
        "group": "resource",
        "lat": -81.73784032395552,
        "lon": 148.4153359463377,
        "alt_km": 646.9835975198821,
        "timestamp": "2025-12-14T18:52:55.155842+00:00",
        "meta_object_name": "GAOFEN-1 03",
        "meta_object_id": "2018-031B",
        "meta_epoch": "2025-12-13T23:46:42.943584",
        "meta_mean_motion": 14.76440028,
        "meta_eccentricity": 0.00019193,
        "meta_inclination": 98.0798,
        "meta_ra_of_asc_node": 45.6573,
        "meta_arg_of_pericenter": 316.3834,
        "meta_mean_anomaly": 43.7224,
        "meta_ephemeris_type": 0,
        "meta_classification_type": "U",
        "meta_norad_cat_id": 43260,
        "meta_element_set_no": 999,
        "meta_rev_at_epoch": 41536,
        "meta_bstar": 0.00019726522,
        "meta_mean_motion_dot": 1.32e-05,
        "meta_mean_motion_ddot": 0,
        "tle_line1": "1 43260U 18031B   25347.99077481  .00001320  00000+0  19727-3 0  9998",
        "tle_line2": "2 43260  98.0798  45.6573 0001919 316.3834  43.7224 14.76440028415363"
      },
      "geometry": {
        "type": "Point",
        "coordinates": [
          148.4153359463377,
          -81.73784032395552
        ]
      }
    },
    {
      "type": "Feature",
      "properties": {
        "norad_id": 43262,
        "name": "GAOFEN-1 04",
        "group": "resource",
        "lat": 37.248680969484326,
        "lon": 40.42106942317195,
        "alt_km": 637.1989623951031,
        "timestamp": "2025-12-14T18:52:55.155853+00:00",
        "meta_object_name": "GAOFEN-1 04",
        "meta_object_id": "2018-031D",
        "meta_epoch": "2025-12-14T00:49:13.459584",
        "meta_mean_motion": 14.76453843,
        "meta_eccentricity": 0.00010103,
        "meta_inclination": 98.0806,
        "meta_ra_of_asc_node": 45.8699,
        "meta_arg_of_pericenter": 59.1489,
        "meta_mean_anomaly": 300.982,
        "meta_ephemeris_type": 0,
        "meta_classification_type": "U",
        "meta_norad_cat_id": 43262,
        "meta_element_set_no": 999,
        "meta_rev_at_epoch": 41536,
        "meta_bstar": 0.00017895638,
        "meta_mean_motion_dot": 1.193e-05,
        "meta_mean_motion_ddot": 0,
        "tle_line1": "1 43262U 18031D   25348.03418356  .00001193  00000+0  17896-3 0  9999",
        "tle_line2": "2 43262  98.0806  45.8699 0001010  59.1489 300.9820 14.76453843415365"
      },
      "geometry": {
        "type": "Point",
        "coordinates": [
          40.42106942317195,
          37.248680969484326
        ]
      }
    },
    {
      "type": "Feature",
      "properties": {
        "norad_id": 43437,
        "name": "SENTINEL-3B",
        "group": "resource",
        "lat": -18.528923058838966,
        "lon": -128.97396949690213,
        "alt_km": 807.8951541891574,
        "timestamp": "2025-12-14T18:52:55.155863+00:00",
        "meta_object_name": "SENTINEL-3B",
        "meta_object_id": "2018-039A",
        "meta_epoch": "2025-12-13T18:23:25.294272",
        "meta_mean_motion": 14.26734476,
        "meta_eccentricity": 0.00016156,
        "meta_inclination": 98.6268,
        "meta_ra_of_asc_node": 52.9368,
        "meta_arg_of_pericenter": 99.9153,
        "meta_mean_anomaly": 260.221,
        "meta_ephemeris_type": 0,
        "meta_classification_type": "U",
        "meta_norad_cat_id": 43437,
        "meta_element_set_no": 999,
        "meta_rev_at_epoch": 39768,
        "meta_bstar": 0.00010544923,
        "meta_mean_motion_dot": 2.12e-06,
        "meta_mean_motion_ddot": 0,
        "tle_line1": "1 43437U 18039A   25347.76626498  .00000212  00000+0  10545-3 0  9993",
        "tle_line2": "2 43437  98.6268  52.9368 0001615  99.9153 260.2210 14.26734476397684"
      },
      "geometry": {
        "type": "Point",
        "coordinates": [
          -128.97396949690213,
          -18.528923058838966
        ]
      }
    },
    {
      "type": "Feature",
      "properties": {
        "norad_id": 43461,
        "name": "GAOFEN-5 01",
        "group": "resource",
        "lat": 73.2651701539623,
        "lon": -77.77338771079822,
        "alt_km": 684.9454046570336,
        "timestamp": "2025-12-14T18:52:55.155873+00:00",
        "meta_object_name": "GAOFEN-5 01",
        "meta_object_id": "2018-043A",
        "meta_epoch": "2025-12-13T21:09:40.188960",
        "meta_mean_motion": 14.604113,
        "meta_eccentricity": 8.809e-05,
        "meta_inclination": 98.4327,
        "meta_ra_of_asc_node": 310.8689,
        "meta_arg_of_pericenter": 335.1873,
        "meta_mean_anomaly": 24.9284,
        "meta_ephemeris_type": 0,
        "meta_classification_type": "U",
        "meta_norad_cat_id": 43461,
        "meta_element_set_no": 999,
        "meta_rev_at_epoch": 40464,
        "meta_bstar": 0.00014321216,
        "meta_mean_motion_dot": 6.45e-06,
        "meta_mean_motion_ddot": 0,
        "tle_line1": "1 43461U 18043A   25347.88171515  .00000645  00000+0  14321-3 0  9999",
        "tle_line2": "2 43461  98.4327 310.8689 0000880 335.1873  24.9284 14.60411300404641"
      },
      "geometry": {
        "type": "Point",
        "coordinates": [
          -77.77338771079822,
          73.2651701539623
        ]
      }
    },
    {
      "type": "Feature",
      "properties": {
        "norad_id": 43484,
        "name": "GAOFEN-6",
        "group": "resource",
        "lat": -9.906773768008808,
        "lon": -128.3879050099808,
        "alt_km": 650.5731251741036,
        "timestamp": "2025-12-14T18:52:55.155884+00:00",
        "meta_object_name": "GAOFEN-6",
        "meta_object_id": "2018-048A",
        "meta_epoch": "2025-12-14T00:08:08.377728",
        "meta_mean_motion": 14.7657001,
        "meta_eccentricity": 0.00131547,
        "meta_inclination": 97.803,
        "meta_ra_of_asc_node": 52.2296,
        "meta_arg_of_pericenter": 60.2237,
        "meta_mean_anomaly": 300.028,
        "meta_ephemeris_type": 0,
        "meta_classification_type": "U",
        "meta_norad_cat_id": 43484,
        "meta_element_set_no": 999,
        "meta_rev_at_epoch": 40606,
        "meta_bstar": 0.00019424969,
        "meta_mean_motion_dot": 1.308e-05,
        "meta_mean_motion_ddot": 0,
        "tle_line1": "1 43484U 18048A   25348.00565252  .00001308  00000+0  19425-3 0  9996",
        "tle_line2": "2 43484  97.8030  52.2296 0013154  60.2237 300.0280 14.76570010406062"
      },
      "geometry": {
        "type": "Point",
        "coordinates": [
          -128.3879050099808,
          -9.906773768008808
        ]
      }
    },
    {
      "type": "Feature",
      "properties": {
        "norad_id": 43585,
        "name": "GAOFEN-11 01",
        "group": "resource",
        "lat": 8.781626440939705,
        "lon": -127.1843924849789,
        "alt_km": 422.74161861132507,
        "timestamp": "2025-12-14T18:52:55.155894+00:00",
        "meta_object_name": "GAOFEN-11 01",
        "meta_object_id": "2018-063A",
        "meta_epoch": "2025-12-13T23:32:39.014304",
        "meta_mean_motion": 15.49262307,
        "meta_eccentricity": 0.00042856,
        "meta_inclination": 97.1563,
        "meta_ra_of_asc_node": 50.9043,
        "meta_arg_of_pericenter": 307.6868,
        "meta_mean_anomaly": 52.3995,
        "meta_ephemeris_type": 0,
        "meta_classification_type": "U",
        "meta_norad_cat_id": 43585,
        "meta_element_set_no": 999,
        "meta_rev_at_epoch": 41161,
        "meta_bstar": 0.00028592393,
        "meta_mean_motion_dot": 0.00015537,
        "meta_mean_motion_ddot": 0,
        "tle_line1": "1 43585U 18063A   25347.98100711  .00015537  00000+0  28592-3 0  9990",
        "tle_line2": "2 43585  97.1563  50.9043 0004285 307.6868  52.3995 15.49262307411611"
      },
      "geometry": {
        "type": "Point",
        "coordinates": [
          -127.1843924849789,
          8.781626440939705
        ]
      }
    },
    {
      "type": "Feature",
      "properties": {
        "norad_id": 43613,
        "name": "ICESAT-2",
        "group": "resource",
        "lat": 67.39000099765107,
        "lon": 66.11434676051272,
        "alt_km": 472.9062281116521,
        "timestamp": "2025-12-14T18:52:55.155905+00:00",
        "meta_object_name": "ICESAT-2",
        "meta_object_id": "2018-070A",
        "meta_epoch": "2025-12-13T23:32:01.807008",
        "meta_mean_motion": 15.28279536,
        "meta_eccentricity": 0.00024324,
        "meta_inclination": 92.0047,
        "meta_ra_of_asc_node": 241.0722,
        "meta_arg_of_pericenter": 138.4125,
        "meta_mean_anomaly": 221.731,
        "meta_ephemeris_type": 0,
        "meta_classification_type": "U",
        "meta_norad_cat_id": 43613,
        "meta_element_set_no": 999,
        "meta_rev_at_epoch": 40417,
        "meta_bstar": 0.0005454498,
        "meta_mean_motion_dot": 0.0001503,
        "meta_mean_motion_ddot": 0,
        "tle_line1": "1 43613U 18070A   25347.98057647  .00015030  00000+0  54545-3 0  9994",
        "tle_line2": "2 43613  92.0047 241.0722 0002432 138.4125 221.7310 15.28279536404174"
      },
      "geometry": {
        "type": "Point",
        "coordinates": [
          66.11434676051272,
          67.39000099765107
        ]
      }
    }
  ]
}